ONEWEB-0267             
1 48985U 21060U   24144.56694355  .00000186  00000+0  45330-3 0  9993
2 48985  87.9131  18.9916 0001901  93.8067 266.3282 13.16595890140295
ONEWEB-0268             
1 48986U 21060V   24144.61127019 -.00000057  00000+0 -18237-3 0  9993
2 48986  87.9131  18.9886 0001725  87.3170 272.8158 13.16595385140562
ONEWEB-0269             
1 48987U 21060W   24144.59227544  .00000027  00000+0  36713-4 0  9990
2 48987  87.9134  19.0172 0001690  80.0785 280.0537 13.16594899140335
ONEWEB-0270             
1 48988U 21060X   24144.60969672 -.00000068  00000+0 -21090-3 0  9996
2 48988  87.9126  18.9982 0002308  90.6403 269.4992 13.16593338140372
ONEWEB-0271             
1 48989U 21060Y   24144.59704441  .00000023  00000+0  26231-4 0  9998
2 48989  87.9132  18.9763 0002056  89.7436 270.3930 13.16593865140370
ONEWEB-0272             
1 48990U 21060Z   24144.61919626 -.00000020  00000+0 -86731-4 0  9996
2 48990  87.9129  19.0006 0001923  90.7802 269.3549 13.16594971140329
ONEWEB-0273             
1 48991U 21060AA  24144.56536674  .00000130  00000+0  30618-3 0  9991
2 48991  87.9130  18.9984 0002017  84.3294 275.8066 13.16593422140296
ONEWEB-0274             
1 48992U 21060AB  24144.59069752  .00000035  00000+0  56694-4 0  9990
2 48992  87.9138  19.0053 0001519 103.6421 256.4879 13.16593912140333
